ONEWEB-0328             
1 49197U 21083M   25330.58902161 -.00000181  00000+0 -53097-3 0  9997
2 49197  87.8996   0.4704 0001665  91.1495 268.9825 13.13470866204309
ONEWEB-0331             
1 49198U 21083N   25330.63292934 -.00000239  00000+0 -63918-3 0  9991
2 49198  87.9196  15.6779 0001469 102.5202 257.6094 13.18685104203319
ONEWEB-0333             
1 49199U 21083P   25330.50776669 -.00000276  00000+0 -78985-3 0  9991
2 49199  87.8979   0.5424 0001835  96.9138 263.2200 13.13470395204300
ONEWEB-0334             
1 49200U 21083Q   25330.49311639 -.00000046  00000+0 -14606-3 0  9999
2 49200  87.9184 314.8855 0002860  86.6742 273.4719 13.20769861210039
ONEWEB-0335             
1 49201U 21083R   25330.65504148 -.00000244  00000+0 -70206-3 0  9995
2 49201  87.8982   0.5016 0001608  98.2972 261.8339 13.13469979204330
ONEWEB-0336             
1 49202U 21083S   25330.55008638  .00000314  00000+0  82445-3 0  9992
2 49202  87.8988   0.5178 0001395  99.2347 260.8940 13.13469591204311
ONEWEB-0337             
1 49203U 21083T   25330.63627998  .00000003  00000+0 -27636-4 0  9996
2 49203  87.8990   0.5116 0001594  90.5708 269.5604 13.13468833204325
ONEWEB-0338             
1 49204U 21083U   25330.46788030  .00000021  00000+0  19765-4 0  9996
2 49204  87.9184 314.8928 0002124  85.5333 274.6042 13.20771586210052
ONEWEB-0339             
1 49205U 21083V   25330.64488513 -.00000185  00000+0 -54096-3 0  9998
2 49205  87.8992   0.4920 0001835  89.7852 270.3488 13.13469525204306
ONEWEB-0340             
1 49206U 21083W   25330.61974757  .00000000  00000+0 -32341-4 0  9991
2 49206  87.9200  15.6852 0001775  98.9716 261.1617 13.18684377203272
ONEWEB-0341             
1 49207U 21083X   25330.62634287  .00000101  00000+0  22444-3 0  9997
2 49207  87.9198  15.6956 0001516  80.9501 279.1803 13.18684414203290
ONEWEB-0342             
1 49208U 21083Y   25330.47416722 -.00000282  00000+0 -72513-3 0  9997
2 49208  87.9194 314.8616 0001952  84.9548 275.1808 13.20771270210023
ONEWEB-0343             
1 49209U 21083Z   25330.63457799 -.00000025  00000+0 -95091-4 0  9997
2 49209  87.9200  15.6860 0001896  80.0266 280.1080 13.18683778203347
ONEWEB-0344             
1 49210U 21083AA  25330.63980624 -.00000089  00000+0 -27805-3 0  9994
2 49210  87.8983   0.5262 0001503  83.7968 276.3332 13.13468752204301
ONEWEB-0345             
1 49211U 21083AB  25330.63134800  .00000135  00000+0  33416-3 0  9997
2 49211  87.8991   0.4863 0001590  82.9041 277.2269 13.13469402204319
ONEWEB-0346             
1 49212U 21083AC  25330.63129338 -.00000025  00000+0 -96485-4 0  9994
2 49212  87.9194  15.7029 0001542 117.5266 242.6023 13.18685381203280
ONEWEB-0348             
1 49213U 21083AD  25330.46469527 -.00000174  00000+0 -45978-3 0  9998
2 49213  87.9181 314.8708 0001202  83.1416 276.9854 13.20773006210052
ONEWEB-0350             
1 49214U 21083AE  25330.64065161 -.00000137  00000+0 -40925-3 0  9991
2 49214  87.8993   0.4817 0001505  87.7230 272.4071 13.13468770204340
ONEWEB-0351             
1 49215U 21083AF  25330.38251537  .00000159  00000+0  35808-3 0  9993
2 49215  87.9190 314.8821 0002540  73.1021 287.0390 13.20773058210007
ONEWEB-0352             
1 49216U 21083AG  25330.62119420  .00000350  00000+0  92412-3 0  9992
2 49216  87.8981   0.5102 0002111  86.3257 273.8113 13.13469410204439
ONEWEB-0354             
1 49217U 21083AH  25330.48364545  .00000097  00000+0  20623-3 0  9990
2 49217  87.9192 314.8609 0001535  81.4211 278.7096 13.20773631210053
ONEWEB-0355             
1 49218U 21083AJ  25330.65010309 -.00000256  00000+0 -73470-3 0  9993
2 49218  87.8984   0.5171 0001791  87.0803 273.0531 13.13469814204319
ONEWEB-0357             
1 49219U 21083AK  25330.48049689  .00000052  00000+0  95483-4 0  9999
2 49219  87.9191 314.8582 0001859  81.1610 278.9734 13.20773334210054
ONEWEB-0332             
1 49279U 21090A   25330.51697942  .00000087  00000+0  20057-3 0  9990
2 49279  87.8975 330.0966 0002027  90.8848 269.2514 13.14502475200959
ONEWEB-0347             
1 49280U 21090B   25330.47103581  .00000022  00000+0  21955-4 0  9996
2 49280  87.9184 314.8716 0002061  93.9866 266.1503 13.20772105204289
ONEWEB-0349             
1 49281U 21090C   25330.50259426 -.00000029  00000+0 -10204-3 0  9994
2 49281  87.9181 314.8643 0001888  84.2838 275.8511 13.20773410203076
ONEWEB-0353             
1 49282U 21090D   25330.50904560 -.00000058  00000+0 -19056-3 0  9997
2 49282  87.8987 330.0819 0002040  92.1196 268.0167 13.14502928200953
ONEWEB-0356             
1 49283U 21090E   25330.50100221  .00000075  00000+0  15327-3 0  9994
2 49283  87.9182 314.8561 0001709 116.7884 243.3425 13.20773850203074
ONEWEB-0358             
1 49284U 21090F   25330.37947468  .00000150  00000+0  33790-3 0  9990
2 49284  87.9189 314.8808 0001702  89.5891 270.5437 13.20774426203787
ONEWEB-0359             
1 49285U 21090G   25330.37633078  .00000099  00000+0  21109-3 0  9993
2 49285  87.9184 314.8825 0001472  79.7410 280.3889 13.20771795203768
ONEWEB-0360             
1 49286U 21090H   25330.51839021  .00000065  00000+0  12675-3 0  9997
2 49286  87.9180 314.8627 0001742  83.3153 276.8178 13.20771567203094
ONEWEB-0361             
1 49287U 21090J   25330.49944154  .00000059  00000+0  11282-3 0  9995
2 49287  87.9181 314.8619 0001726  91.7091 268.4240 13.20771887203545
ONEWEB-0362             
1 49288U 21090K   25330.59474628 -.00000023  00000+0 -89297-4 0  9996
2 49288  87.9195 345.2994 0001924  84.3675 275.7677 13.19722950200199
ONEWEB-0363             
1 49289U 21090L   25330.51521374  .00000125  00000+0  27634-3 0  9997
2 49289  87.9190 314.8560 0001687  97.6345 262.4980 13.20769851203559
ONEWEB-0364             
1 49290U 21090M   25330.47732638  .00000024  00000+0  27771-4 0  9992
2 49290  87.9183 314.8882 0001791  90.2840 269.8498 13.20769401204686
ONEWEB-0365             
1 49291U 21090N   25330.60422300  .00000093  00000+0  19993-3 0  9992
2 49291  87.9212 345.2601 0001918  90.7042 269.4310 13.19723049199708
ONEWEB-0366             
1 49292U 21090P   25330.50587600 -.00000054  00000+0 -17918-3 0  9991
2 49292  87.8978 330.1005 0001736  90.6484 269.4844 13.14502275200936
ONEWEB-0367             
1 49293U 21090Q   25330.51362774  .00000057  00000+0  10814-3 0  9995
2 49293  87.9192 314.8552 0001990  82.3997 277.7363 13.20769394203071
ONEWEB-0368             
1 49294U 21090R   25330.48680418 -.00000068  00000+0 -19980-3 0  9997
2 49294  87.9188 314.8915 0002356 104.6595 255.4800 13.20768999204226
ONEWEB-0369             
1 49295U 21090S   25330.59948291  .00000019  00000+0  15771-4 0  9995
2 49295  87.9202 345.2898 0001901  92.4939 267.6412 13.19727822199699
ONEWEB-0370             
1 49296U 21090T   25330.52309315  .00000071  00000+0  14285-3 0  9993
2 49296  87.9183 314.8593 0001725  76.3191 283.8134 13.20773429203117
ONEWEB-0371             
1 49297U 21090U   25330.60737965  .00000054  00000+0  10221-3 0  9996
2 49297  87.9204 345.2752 0001863  89.0642 271.0704 13.19727717199733
ONEWEB-0372             
1 49298U 21090V   25330.51192100  .00000009  00000+0 -86214-5 0  9991
2 49298  87.9178 314.8619 0001949  87.2435 272.8921 13.20773443203086
ONEWEB-0373             
1 49299U 21090W   25330.46313792  .00000002  00000+0 -27733-4 0  9991
2 49299  87.9182 314.8846 0001739  86.8870 273.2462 13.20772954204261
ONEWEB-0374             
1 49300U 21090X   25330.49318756 -.00000200  00000+0 -57451-3 0  9992
2 49300  87.8987 330.0804 0001777 107.8873 252.2451 13.14503665200938
ONEWEB-0375             
1 49301U 21090Y   25330.52626413  .00000148  00000+0  33167-3 0  9996
2 49301  87.9183 314.8524 0001389 101.7035 258.4254 13.20772838203770
ONEWEB-0376             
1 49302U 21090Z   25330.60581654  .00000021  00000+0  19288-4 0  9992
2 49302  87.9210 345.2624 0002054  90.4667 269.6701 13.19726311199730
ONEWEB-0377             
1 49303U 21090AA  25330.51220000  .00000095  00000+0  20230-3 0  9997
2 49303  87.9189 314.8550 0001640  82.9072 277.2247 13.20772823203762
ONEWEB-0378             
1 49304U 21090AB  25330.38276516 -.00000167  00000+0 -44297-3 0  9997
2 49304  87.9185 314.8957 0001757  90.5757 269.5578 13.20771552203011
ONEWEB-0379             
1 49305U 21090AC  25330.48843321 -.00000169  00000+0 -48958-3 0  9993
2 49305  87.8987 330.0899 0001857  92.8368 267.2974 13.14503552200939
ONEWEB-0380             
1 49306U 21090AD  25330.60264281 -.00000274  00000+0 -71724-3 0  9994
2 49306  87.9201 345.2858 0001628  93.7079 266.4240 13.19725104199701
ONEWEB-0381             
1 49307U 21090AE  25330.50889308  .00000016  00000+0  78207-5 0  9994
2 49307  87.9182 314.8593 0001619  92.4665 267.6653 13.20773943203078
ONEWEB-0382             
1 49308U 21090AF  25330.49628240 -.00000068  00000+0 -19903-3 0  9994
2 49308  87.9193 314.8568 0001751  96.7228 263.4105 13.20772654203065
ONEWEB-0383             
1 49309U 21090AG  25330.55820378 -.00000078  00000+0 -24499-3 0  9995
2 49309  87.8988 330.0602 0001833  95.1169 265.0170 13.14501883200978
ONEWEB-0384             
1 49310U 21090AH  25330.49002148  .00000022  00000+0  22219-4 0  9993
2 49310  87.9200 314.8925 0001800 104.1782 255.9551 13.20798232203070
ONEWEB-0385             
1 49311U 21090AJ  25330.48837477 -.00000009  00000+0 -53407-4 0  9994
2 49311  87.9184 314.8647 0001757  91.8018 268.3317 13.20772093203040
ONEWEB-0386             
1 49312U 21090AK  25330.50573562  .00000033  00000+0  50082-4 0  9991
2 49312  87.9192 314.8439 0001789  95.6879 264.4459 13.20773481203069
ONEWEB-0387             
1 49313U 21090AL  25330.48996867 -.00000068  00000+0 -19984-3 0  9991
2 49313  87.9185 314.8938 0001531  88.3973 271.7336 13.20772745203062
ONEWEB-0388             
1 49314U 21090AM  25330.52208713 -.00000019  00000+0 -79997-4 0  9990
2 49314  87.9195 345.3041 0001774  96.8078 263.3257 13.19727572199684
